OSCAR 7 (AO-7)          
1 07530U 74089B   20228.54344453 -.00000039  00000-0  37628-4 0  9992
2 07530 101.8045 197.9653 0011755 250.3487 221.6630 12.53644624 93632
UOSAT 2 (UO-11)         
1 14781U 84021B   20228.11821964  .00000053  00000-0  12580-4 0  9990
2 14781  97.5902 237.1734 0008872  18.8843 341.2699 14.83184268961521
LUSAT (LO-19)           
1 20442U 90005G   20227.74685782 -.00000012  00000-0  11981-4 0  9994
2 20442  98.6953 175.2044 0011571 349.2358  10.8576 14.32958348596965
EYESAT A (AO-27)        
1 22825U 93061C   20228.42344628 -.00000008  00000-0  15092-4 0  9995
2 22825  98.9247 232.3630 0007994 198.6091 161.4799 14.30090456402513
ITAMSAT (IO-26)         
1 22826U 93061D   20227.83644671 -.00000003  00000-0  16906-4 0  9991
2 22826  98.9188 231.7016 0008709 188.3795 171.7242 14.30426563402644
RADIO ROSTO (RS-15)     
1 23439U 94085A   20227.48028920 -.00000042  00000-0  21229-4 0  9990
2 23439  64.8161 152.4119 0150912  31.1830 329.7942 11.27568913 55566
JAS-2 (FO-29)           
1 24278U 96046B   20227.50901626 -.00000016  00000-0  21301-4 0  9999
2 24278  98.5877 329.7533 0349611 224.4005 132.8615 13.53099053184986
TECHSAT 1B (GO-32)      
1 25397U 98043D   20227.84780742 -.00000022  00000-0  97537-5 0  9994
2 25397  98.7304 168.9097 0000355 193.8891 166.2278 14.23688795148087
ISS (ZARYA)             
1 25544U 98067A   20228.37224125  .00000494  00000-0  17022-4 0  9993
2 25544  51.6460  55.5526 0001465  45.7523  18.7733 15.49164079241196
PCSAT (NO-44)           
1 26931U 01043C   20227.75589148 -.00000049  00000-0  13051-4 0  9997
2 26931  67.0531 351.9381 0006101 274.9543  85.0861 14.30584429985489
SAUDISAT 1C (SO-50)     
1 27607U 02058C   20227.65061839 -.00000043  00000-0  14305-4 0  9993
2 27607  64.5545 196.4341 0040675 159.0187 201.2596 14.75651623949449
CUTE-1 (CO-55)          
1 27844U 03031E   20228.45678364  .00000041  00000-0  37927-4 0  9996
2 27844  98.6821 235.3008 0008744 241.7248 118.3048 14.22251003888529
CUBESAT XI-IV (CO-57)   
1 27848U 03031J   20228.00800265  .00000029  00000-0  32831-4 0  9993
2 27848  98.6887 235.4204 0008551 257.2335 102.7887 14.21836331888293
MOZHAYETS 4 (RS-22)     
1 27939U 03042A   20228.52709935  .00000141  00000-0  33931-4 0  9992
2 27939  98.0981   2.5888 0013398 161.6810 198.4883 14.66878501902676
CUBESAT XI-V            
1 28895U 05043F   20227.92770783  .00000073  00000-0  22819-4 0  9996
2 28895  98.0174   2.6704 0018208  96.3760 263.9517 14.63790272789392
CUTE-1.7+APD II (CO-65) 
1 32785U 08021C   20227.74927636  .00000152  00000-0  21947-4 0  9998
2 32785  97.5764 213.2125 0011676 304.4865  55.5249 14.88499908666617
DELFI-C3 (DO-64)        
1 32789U 08021G   20228.19942383  .00001289  00000-0  87892-4 0  9991
2 32789  97.4144 268.9375 0013670 112.2408 248.0272 15.07853168670760
SEEDS II (CO-66)        
1 32791U 08021J   20227.71638773  .00000313  00000-0  36917-4 0  9995
2 32791  97.5434 219.3021 0011618 268.8503  91.1385 14.91089064667146
YUBILEINY (RS-30)       
1 32953U 08025A   20228.55220868  .00000037  00000-0  19437-3 0  9994
2 32953  82.5001 241.1477 0018066 286.3484  73.5607 12.43097727554972
KKS-1 (KISEKI)          
1 33499U 09002H   20228.44735826  .00000054  00000-0  15926-4 0  9998
2 33499  98.3107  84.8193 0007978 302.0920  57.9513 14.75551431621711
SWISSCUBE               
1 35932U 09051B   20228.43819308  .00000097  00000-0  32855-4 0  9990
2 35932  98.6119  52.6200 0006637 313.0569  47.0071 14.56414695578455
BEESAT-1                
1 35933U 09051C   20228.48625290  .00000083  00000-0  29636-4 0  9999
2 35933  98.6111  54.5374 0005108 330.4531  29.6377 14.56487914578577
ITUPSAT1                
1 35935U 09051E   20228.10322281  .00000070  00000-0  27344-4 0  9994
2 35935  98.6217  54.3337 0007403 327.5335  32.5405 14.55631685578235
XIWANG-1 (HOPE-1)       
1 36122U 09072B   20227.77678544  .00000002  00000-0  11680-3 0  9994
2 36122 100.0956 215.6706 0008512  79.5492 280.6587 13.16355927512541
JUGNU                   
1 37839U 11058B   20227.85713012  .00000314  00000-0  25489-4 0  9995
2 37839  19.9612 288.5865 0018852 312.8697 205.1360 14.12685477457167
SRMSAT                  
1 37841U 11058D   20228.01925274  .00000329  00000-0  35513-4 0  9997
2 37841  19.9734 353.1413 0011767 166.8473 351.6398 14.10666356456542
M-CUBED & EXP-1 PRIME   
1 37855U 11061F   20227.36236501  .00000658  00000-0  40465-4 0  9998
2 37855 101.7170 345.6296 0170449 262.9913  95.1887 15.06409315480395
STRAND-1                
1 39090U 13009E   20227.57442276  .00000026  00000-0  24005-4 0  9997
2 39090  98.4526  70.5876 0010301 109.0372 251.1930 14.35140373391046
SOMP                    
1 39134U 13015E   20227.10104618  .00000880  00000-0  48221-4 0  9991
2 39134  64.8625  90.8356 0028474 234.4767 125.3705 15.21177439404823
BEESAT-3                
1 39135U 13015F   20227.80097538  .00000509  00000-0  34291-4 0  9991
2 39135  64.8663 112.9646 0035076 233.3089 126.4813 15.18274576404463
BEESAT-2                
1 39136U 13015G   20227.41081033  .00000651  00000-0  41747-4 0  9994
2 39136  64.8724 119.3977 0033690 273.4732  86.2541 15.17671074403913
ZACUBE-1 (TSHEPISOSAT)  
1 39417U 13066B   20228.47160791  .00000157  00000-0  25886-4 0  9995
2 39417  97.5672 223.2171 0060450  84.5132 276.2973 14.81302784363778
GOMX-1                  
1 39430U 13066Q   20228.49415006  .00000157  00000-0  37559-4 0  9994
2 39430  97.7925 163.4602 0151218 359.1636   0.9279 14.59423645358414
CUBEBUG-2 (LO-74)       
1 39440U 13066AA  20227.65430428  .00000127  00000-0  24454-4 0  9994
2 39440  97.6349 206.9536 0080768 150.2609 210.3229 14.76037401362365
FUNCUBE-1 (AO-73)       
1 39444U 13066AE  20227.49015946  .00000207  00000-0  31480-4 0  9990
2 39444  97.5610 224.5518 0059555  79.7834 281.0090 14.82161237361968
UWE-3                   
1 39446U 13066AG  20227.47562147  .00000135  00000-0  24320-4 0  9995
2 39446  97.6016 213.9496 0071257 119.8278 241.0043 14.78570733361143
SPROUT                  
1 39770U 14029E   20228.33175796  .00000377  00000-0  47276-4 0  9994
2 39770  97.9004 334.3744 0009999 129.7259 230.4879 14.87815979337810
UNISAT-6                
1 40012U 14033C   20227.64405361  .00000138  00000-0  27676-4 0  9994
2 40012  97.7055  79.7055 0058365 170.8011 189.4282 14.74140540330998
DUCHIFAT-1              
1 40021U 14033M   20227.80248566  .00000185  00000-0  24556-4 0  9990
2 40021  97.9428 159.4005 0014392  94.0111 266.2753 14.90948014334581
QB50P1                  
1 40025U 14033R   20227.77874635  .00000143  00000-0  21098-4 0  9994
2 40025  97.9138 152.0807 0013839 105.2534 255.0213 14.89169129334285
NUDT-PHONESAT           
1 40900U 15049B   20228.34880953  .00001749  00000-0  74349-4 0  9998
2 40900  97.4309 238.7959 0013807 131.7567 353.6080 15.24308384272160
ZDPS 2A                 
1 40901U 15049C   20228.46678167  .00000890  00000-0  46516-4 0  9995
2 40901  97.4622 233.4159 0013610 161.1303 356.2111 15.18398452271521
ZDPS 2B                 
1 40902U 15049D   20228.44651054  .00000826  00000-0  43425-4 0  9995
2 40902  97.4614 230.6693 0013705 158.5957 344.4904 15.18394439271491
XW-2A                   
1 40903U 15049E   20228.45453156  .00001760  00000-0  41375-4 0  9990
2 40903  97.2832 277.4380 0014504  53.3273  71.6820 15.43286609275571
KAITUO 1A               
1 40904U 15049F   20228.48676475  .00000466  00000-0  27878-4 0  9999
2 40904  97.4780 228.6584 0014344 172.2635 338.9811 15.15756349271189
2015-049G               
1 40905U 15049G   20228.48417574  .00000350  00000-0  22496-4 0  9996
2 40905  97.4867 225.8426 0015547 170.4500 340.7408 15.14598253271019
XW-2C                   
1 40906U 15049H   20228.51973611  .00000485  00000-0  28566-4 0  9993
2 40906  97.4787 229.0027 0015083 163.2161 313.2446 15.16135388271208
XW-2D                   
1 40907U 15049J   20228.51148191  .00000335  00000-0  20649-4 0  9999
2 40907  97.4763 228.7089 0014313 159.9136 355.9742 15.16374596271226
LILACSAT-2              
1 40908U 15049K   20228.53107887  .00000547  00000-0  33616-4 0  9992
2 40908  97.4928 227.0007 0015944 171.5173 304.0597 15.14081628270933
XW-2F                   
1 40910U 15049M   20228.50346519  .00000709  00000-0  38080-4 0  9999
2 40910  97.4686 231.3640 0015218 149.5436   4.2990 15.18039908271293
XW-2B                   
1 40911U 15049N   20228.49747616  .00000445  00000-0  26366-4 0  9992
2 40911  97.4779 229.3940 0014292 160.4719 350.7075 15.16299850271110
KAITUO 1B               
1 40912U 15049P   20228.47119907  .00000952  00000-0  46693-4 0  9995
2 40912  97.4486 235.5392 0015846 127.8403  29.8432 15.20447680271683
TIANWANG 1C (TW-1C)     
1 40926U 15051B   20228.45285480  .00022036  00000-0  19901-3 0  9999
2 40926  97.0787 280.6856 0005106 202.5264 281.9242 15.68127999276267
TIANWANG 1A (TW-1A)     
1 40928U 15051D   20228.36802699  .00002520  00000-0  59208-4 0  9999
2 40928  97.1071 254.7623 0009650 342.2767 144.6264 15.42899611274455
LAPAN-A2                
1 40931U 15052B   20228.17807545  .00000774  00000-0  18595-4 0  9991
2 40931   5.9992 276.6418 0013639  27.9256 332.1790 14.76641287263956
E-ST@R-II               
1 41459U 16025D   20228.37705704  .00000936  00000-0  50907-4 0  9997
2 41459  98.1084 341.4552 0164502  13.9808 346.5883 15.06577670236312
AAUSAT 4                
1 41460U 16025E   20228.35651453  .00000872  00000-0  46349-4 0  9992
2 41460  98.1057 343.9746 0153497   2.0645 358.1144 15.08943523236523
NUSAT-1 (FRESCO)        
1 41557U 16033B   20228.44550964  .00000973  00000-0  38157-4 0  9993
2 41557  97.4037 318.2910 0012106 234.9548 125.0556 15.28136578234787
BEESAT-4                
1 41619U 16040W   20227.26819360  .00001052  00000-0  46082-4 0  9992
2 41619  97.3153 285.4243 0010387 344.8391  15.2533 15.24142741218203
